STARLINK-30168          
1 57513U 23113U   25209.58420526 -.00000085  00000+0  87901-5 0  9994
2 57513  43.0012 155.4889 0000744 269.2622  90.8135 15.02533816109782
STARLINK-30231          
1 57514U 23113V   25209.96642617 -.00000464  00000+0 -19306-4 0  9999
2 57514  43.0008 153.2152 0000911 268.3776  91.6962 15.02534558110001
STARLINK-30081          
1 57515U 23113W   25210.21901766  .00000431  00000+0  46931-4 0  9999
2 57515  43.0017 151.6925 0000843 275.0235  85.0511 15.02536630110045
STARLINK-30149          
1 57516U 23113X   25209.27834096  .00001123  00000+0  98153-4 0  9997
2 57516  43.0023 156.6686 0000684 265.4748  94.6016 15.02532191109803
STARLINK-30259          
1 57521U 23115A   25210.00996313  .00003225  00000+0  25384-3 0  9999
2 57521  43.0024 140.4454 0000844 264.7774  95.2972 15.02516268109774
STARLINK-30256          
1 57522U 23115B   25209.20889306  .00000333  00000+0  39744-4 0  9996
2 57522  43.0030 144.7547 0001049 263.1795  96.8928 15.02531503108547
STARLINK-30261          
1 57523U 23115C   25209.20557289 -.00000590  00000+0 -28591-4 0  9994
2 57523  43.0017 144.7280 0000691 278.6622  81.4142 15.02541095108544
STARLINK-30260          
1 57524U 23115D   25210.19940424 -.00000124  00000+0  58590-5 0  9997
2 57524  43.0032 139.3051 0000560 274.6433  85.4345 15.02535171109479
STARLINK-30253          
1 57525U 23115E   25210.18941441  .00006627  00000+0  50531-3 0  9995
2 57525  43.0053 139.2144 0002350 301.5457  58.5156 15.02525526109643
STARLINK-30257          
1 57526U 23115F   25210.19274716 -.00000446  00000+0 -17950-4 0  9995
2 57526  43.0005 139.2626 0000329 252.9880 107.0926 15.02533078109645
STARLINK-30250          
1 57527U 23115G   25210.18608737 -.00000906  00000+0 -52005-4 0  9990
2 57527  43.0026 139.1846 0000947 277.6331  82.4404 15.02533612109587
STARLINK-30269          
1 57528U 23115H   25210.17276590  .00000295  00000+0  36893-4 0  9994
2 57528  43.0021 139.1140 0000944 266.6081  93.4653 15.02536474109809
STARLINK-30266          
1 57529U 23115J   25210.16277539 -.00000138  00000+0  48766-5 0  9998
2 57529  43.0032 139.0211 0000999 261.9714  98.1015 15.02532124109746
STARLINK-30270          
1 57530U 23115K   25209.17226919 -.00000154  00000+0  37003-5 0  9995
2 57530  43.0023 144.4988 0000878 269.5751  90.4991 15.02533831108541
STARLINK-30268          
1 57531U 23115L   25210.11627251  .00001466  00000+0  12360-3 0  9999
2 57531  43.0030 139.5411 0001217 277.9769  82.0935 15.02526142109639
STARLINK-30251          
1 57532U 23115M   25209.24651562 -.00001081  00000+0 -65009-4 0  9998
2 57532  43.0023 144.1808 0000964 272.5092  87.5640 15.02527678108550
STARLINK-30254          
1 57533U 23115N   25209.69938082 -.00001819  00000+0 -56635-4 0  9997
2 57533  42.9967 288.1334 0000769 236.3162 123.7616 15.27570129112049
STARLINK-30264          
1 57534U 23115P   25210.20775118 -.00008584  00000+0 -31844-3 0  9996
2 57534  43.0049  30.5088 0001550 274.9962  85.0712 15.25935643111188
STARLINK-30166          
1 57602U 23119A   25209.40664196  .00000107  00000+0  23025-4 0  9993
2 57602  43.0028 220.6703 0001547 286.2091  73.8581 15.02534020109288
STARLINK-30223          
1 57603U 23119B   25209.71905086  .00000046  00000+0  18492-4 0  9998
2 57603  43.0022 218.7050 0001380 284.0245  76.0444 15.02533985109381
STARLINK-30218          
1 57604U 23119C   25209.39333601  .00000672  00000+0  64818-4 0  9999
2 57604  43.0023 220.5718 0001891 273.5101  86.5525 15.02526611109346
STARLINK-30138          
1 57605U 23119D   25210.05475914  .00001659  00000+0  13784-3 0  9990
2 57605  43.0054 216.9357 0001259 270.6627  89.4071 15.02544934109434
STARLINK-30255          
1 57606U 23119E   25209.49741932  .00000463  00000+0  49353-4 0  9997
2 57606  43.0026 219.6274 0001408 290.7435  69.3257 15.02535782109364
STARLINK-30252          
1 57607U 23119F   25209.99858051  .00000661  00000+0  63998-4 0  9995
2 57607  43.0021 204.6336 0001318 294.5250  65.5455 15.02547008109520
STARLINK-30258          
1 57608U 23119G   25210.04589389  .00000778  00000+0  72722-4 0  9993
2 57608  43.0018 216.8656 0001177 279.4531  80.6179 15.02517312109430
STARLINK-30174          
1 57609U 23119H   25209.37334505 -.00000665  00000+0 -34122-4 0  9995
2 57609  43.0016 220.4205 0001398 280.6061  79.4624 15.02541323109347
STARLINK-30248          
1 57610U 23119J   25209.04429726  .00001757  00000+0  14513-3 0  9993
2 57610  43.0027 222.2495 0001859 273.6485  86.4144 15.02538846109291
STARLINK-30052          
1 57611U 23119K   25209.43649366 -.00000190  00000+0  10499-5 0  9993
2 57611  43.0025 220.0352 0001766 285.2428  74.8219 15.02530816109339
STARLINK-30245          
1 57612U 23119L   25209.43315992  .00000374  00000+0  42759-4 0  9995
2 57612  43.0020 220.0094 0001688 291.3962  68.6700 15.02537343109352
STARLINK-30041          
1 57613U 23119M   25209.42984626 -.00000834  00000+0 -46709-4 0  9993
2 57613  43.0020 219.9842 0001355 278.9868  81.0821 15.02524805109350
