OBJECT_NAME,OBJECT_ID,EPOCH,MEAN_MOTION,ECCENTRICITY,INCLINATION,RA_OF_ASC_NODE,ARG_OF_PERICENTER,MEAN_ANOMALY,EPHEMERIS_TYPE,CLASSIFICATION_TYPE,NORAD_CAT_ID,ELEMENT_SET_NO,REV_AT_EPOCH,BSTAR,MEAN_MOTION_DOT,MEAN_MOTION_DDOT
STARLINK-30168,2023-113U,2025-07-28T14:01:15.334464,15.02533816,.0000744,43.0012,155.4889,269.2622,90.8135,0,U,57513,999,10978,.87901E-5,-.85E-6,0
STARLINK-30231,2023-113V,2025-07-28T23:11:39.221088,15.02534558,.0000911,43.0008,153.2152,268.3776,91.6962,0,U,57514,999,11000,-.19306E-4,-.464E-5,0
STARLINK-30081,2023-113W,2025-07-29T05:15:23.125824,15.02536630,.0000843,43.0017,151.6925,275.0235,85.0511,0,U,57515,999,11004,.46931E-4,.431E-5,0
STARLINK-30149,2023-113X,2025-07-28T06:40:48.658944,15.02532191,.0000684,43.0023,156.6686,265.4748,94.6016,0,U,57516,999,10980,.98153E-4,.1123E-4,0
STARLINK-30259,2023-115A,2025-07-29T00:14:20.814432,15.02516268,.0000844,43.0024,140.4454,264.7774,95.2972,0,U,57521,999,10977,.25384E-3,.3225E-4,0
STARLINK-30256,2023-115B,2025-07-28T05:00:48.360384,15.02531503,.0001049,43.0030,144.7547,263.1795,96.8928,0,U,57522,999,10854,.39744E-4,.333E-5,0
STARLINK-30261,2023-115C,2025-07-28T04:56:01.497696,15.02541095,.0000691,43.0017,144.7280,278.6622,81.4142,0,U,57523,999,10854,-.28591E-4,-.59E-5,0
STARLINK-30260,2023-115D,2025-07-29T04:47:08.526336,15.02535171,.000056,43.0032,139.3051,274.6433,85.4345,0,U,57524,999,10947,.5859E-5,-.124E-5,0
STARLINK-30253,2023-115E,2025-07-29T04:32:45.405024,15.02525526,.000235,43.0053,139.2144,301.5457,58.5156,0,U,57525,999,10964,.50531E-3,.6627E-4,0
STARLINK-30257,2023-115F,2025-07-29T04:37:33.354624,15.02533078,.0000329,43.0005,139.2626,252.9880,107.0926,0,U,57526,999,10964,-.1795E-4,-.446E-5,0
STARLINK-30250,2023-115G,2025-07-29T04:27:57.948768,15.02533612,.0000947,43.0026,139.1846,277.6331,82.4404,0,U,57527,999,10958,-.52005E-4,-.906E-5,0
STARLINK-30269,2023-115H,2025-07-29T04:08:46.973760,15.02536474,.0000944,43.0021,139.1140,266.6081,93.4653,0,U,57528,999,10980,.36893E-4,.295E-5,0
STARLINK-30266,2023-115J,2025-07-29T03:54:23.793696,15.02532124,.0000999,43.0032,139.0211,261.9714,98.1015,0,U,57529,999,10974,.48766E-5,-.138E-5,0
STARLINK-30270,2023-115K,2025-07-28T04:08:04.058016,15.02533831,.0000878,43.0023,144.4988,269.5751,90.4991,0,U,57530,999,10854,.37003E-5,-.154E-5,0
STARLINK-30268,2023-115L,2025-07-29T02:47:25.944864,15.02526142,.0001217,43.0030,139.5411,277.9769,82.0935,0,U,57531,999,10963,.1236E-3,.1466E-4,0
STARLINK-30251,2023-115M,2025-07-28T05:54:58.949568,15.02527678,.0000964,43.0023,144.1808,272.5092,87.5640,0,U,57532,999,10855,-.65009E-4,-.1081E-4,0
STARLINK-30254,2023-115N,2025-07-28T16:47:06.502848,15.27570129,.0000769,42.9967,288.1334,236.3162,123.7616,0,U,57533,999,11204,-.56635E-4,-.1819E-4,0
STARLINK-30264,2023-115P,2025-07-29T04:59:09.701952,15.25935643,.000155,43.0049,30.5088,274.9962,85.0712,0,U,57534,999,11118,-.31844E-3,-.8584E-4,0
STARLINK-30166,2023-119A,2025-07-28T09:45:33.865344,15.02534020,.0001547,43.0028,220.6703,286.2091,73.8581,0,U,57602,999,10928,.23025E-4,.107E-5,0
STARLINK-30223,2023-119B,2025-07-28T17:15:25.994304,15.02533985,.000138,43.0022,218.7050,284.0245,76.0444,0,U,57603,999,10938,.18492E-4,.46E-6,0
STARLINK-30218,2023-119C,2025-07-28T09:26:24.231264,15.02526611,.0001891,43.0023,220.5718,273.5101,86.5525,0,U,57604,999,10934,.64818E-4,.672E-5,0
STARLINK-30138,2023-119D,2025-07-29T01:18:51.189696,15.02544934,.0001259,43.0054,216.9357,270.6627,89.4071,0,U,57605,999,10943,.13784E-3,.1659E-4,0
STARLINK-30255,2023-119E,2025-07-28T11:56:17.029248,15.02535782,.0001408,43.0026,219.6274,290.7435,69.3257,0,U,57606,999,10936,.49353E-4,.463E-5,0
STARLINK-30252,2023-119F,2025-07-28T23:57:57.356064,15.02547008,.0001318,43.0021,204.6336,294.5250,65.5455,0,U,57607,999,10952,.63998E-4,.661E-5,0
STARLINK-30258,2023-119G,2025-07-29T01:06:05.232096,15.02517312,.0001177,43.0018,216.8656,279.4531,80.6179,0,U,57608,999,10943,.72722E-4,.778E-5,0
STARLINK-30174,2023-119H,2025-07-28T08:57:37.012320,15.02541323,.0001398,43.0016,220.4205,280.6061,79.4624,0,U,57609,999,10934,-.34122E-4,-.665E-5,0
STARLINK-30248,2023-119J,2025-07-28T01:03:47.283264,15.02538846,.0001859,43.0027,222.2495,273.6485,86.4144,0,U,57610,999,10929,.14513E-3,.1757E-4,0
STARLINK-30052,2023-119K,2025-07-28T10:28:33.052224,15.02530816,.0001766,43.0025,220.0352,285.2428,74.8219,0,U,57611,999,10933,.10499E-5,-.19E-5,0
STARLINK-30245,2023-119L,2025-07-28T10:23:45.017088,15.02537343,.0001688,43.0020,220.0094,291.3962,68.6700,0,U,57612,999,10935,.42759E-4,.374E-5,0
STARLINK-30041,2023-119M,2025-07-28T10:18:58.716864,15.02524805,.0001355,43.0020,219.9842,278.9868,81.0821,0,U,57613,999,10935,-.46709E-4,-.834E-5,0
